IRIDIUM 7 [-]           
1 24793U 97020B   24068.55005750  .00000648  00000+0  22027-3 0  9993
2 24793  86.4011  11.9536 0002024  91.8795 268.2634 14.35107387405097
IRIDIUM 5 [-]           
1 24795U 97020D   24068.62198906  .00004281  00000+0  41721-3 0  9998
2 24795  86.3905 296.8947 0124678   0.4703 359.6615 14.86477171416122
IRIDIUM 4 [-]           
1 24796U 97020E   24068.34276304  .00000766  00000+0  25683-3 0  9990
2 24796  86.4010   9.2297 0002051  84.5932 275.5499 14.36023164405591
IRIDIUM 914 [-]         
1 24836U 97030A   24068.36485297  .00000849  00000+0  26421-3 0  9994
2 24836  86.3975  19.1819 0001759  32.4697 327.6610 14.39861892540077
IRIDIUM 16 [-]          
1 24841U 97030F   24068.47130190  .00000825  00000+0  26790-3 0  9994
2 24841  86.4033  40.8494 0003602 119.7636 240.3920 14.37745663400064
IRIDIUM 911 [-]         
1 24842U 97030G   24068.44450293  .00001067  00000+0  29179-3 0  9994
2 24842  86.4461  40.0723 0013221 201.6289 158.4357 14.46339458407735
IRIDIUM 17 [-]          
1 24870U 97034B   24068.51601559  .00000720  00000+0  23710-3 0  9990
2 24870  86.3905  70.4705 0003887  93.3227 266.8414 14.36834223396699
IRIDIUM 920 [-]         
1 24871U 97034C   24068.43724453  .00000760  00000+0  23237-3 0  9999
2 24871  86.3952  50.8042 0011784 167.1733 192.9769 14.40560566399501
